TIANMU-1 07             
1 57399U 23101A   26065.57454230  .00008352  00000+0  29795-3 0  9991
2 57399  97.2728 118.5929 0004609 142.4105 217.7458 15.29118809145964
STARLINK-31574          
1 59543U 24074K   26068.17193650 -.00002487  00000+0 -80926-4 0  9998
2 59543  43.0004 346.5792 0000980 281.8473  78.2269 15.27571080105933
